ONEWEB-0340             
1 49206U 21083W   26018.96093118 -.00000004  00000+0 -43800-4 0  9993
2 49206  87.9189   5.0781 0001866  85.3966 274.7379 13.18686664210308
ONEWEB-0341             
1 49207U 21083X   26018.96753819  .00000041  00000+0  71316-4 0  9997
2 49207  87.9188   5.0876 0001799 102.8373 257.2960 13.18685730210322
ONEWEB-0342             
1 49208U 21083Y   26018.80696905  .00000040  00000+0  66885-4 0  9997
2 49208  87.9235 304.2380 0001567  72.9729 287.1576 13.20772156217060
ONEWEB-0343             
1 49209U 21083Z   26018.97577994  .00000068  00000+0  13897-3 0  9996
2 49209  87.9191   5.0794 0001409 100.6184 259.5107 13.18686577210374
ONEWEB-0344             
1 49210U 21083AA  26018.96413100  .00000071  00000+0  16068-3 0  9992
2 49210  87.8994 349.9150 0001784  96.4189 263.7143 13.13470110211305
ONEWEB-0345             
1 49211U 21083AB  26018.95565189 -.00000133  00000+0 -39966-3 0  9990
2 49211  87.9001 349.8794 0001723  95.3023 264.8303 13.13471597211318
ONEWEB-0346             
1 49212U 21083AC  26018.97248535  .00000047  00000+0  85978-4 0  9993
2 49212  87.9183   5.0929 0002489  87.4004 272.7414 13.18685125210311
ONEWEB-0348             
1 49213U 21083AD  26018.79748845  .00000045  00000+0  78053-4 0  9997
2 49213  87.9230 304.2435 0002110  88.6605 271.4770 13.20770241217092
